{
  "type": "Feature",
  "properties": {
    "source": "Marine Regions coastline web services",
    "license": "CC-BY"
  },
  "geometry": {
    "type": "MultiLineString",
    "coordinates": [
      [[68.1, 23.7], [68.8, 22.9], [69.4, 22.3], [70.1, 21.7], [70.5, 21.0], [70.8, 20.2], [71.3, 19.5], [72.0, 19.7], [72.4, 19.4], [72.7, 19.1], [72.8, 18.9], [73.0, 18.5], [73.2, 17.8], [73.5, 16.8], [73.7, 15.8], [73.9, 14.8], [74.1, 13.8], [74.4, 12.8], [74.9, 12.0], [75.5, 11.5], [76.1, 10.9], [76.4, 10.3], [76.6, 9.7], [76.8, 9.2], [77.0, 8.5]],
      [[77.0, 8.5], [77.5, 8.2], [78.0, 8.1], [78.5, 8.2], [79.0, 8.4], [79.5, 8.7], [80.0, 9.0], [80.4, 9.3], [80.7, 9.8], [80.4, 10.5], [80.3, 11.2], [80.3, 12.0], [80.3, 13.1]],
      [[80.3, 13.1], [80.6, 13.8], [81.0, 14.7], [81.4, 15.6], [81.8, 16.4], [82.4, 17.1], [83.0, 17.6], [83.3, 17.7], [83.8, 18.3], [84.4, 18.9], [85.0, 19.5], [85.6, 20.1], [86.2, 20.6], [86.8, 21.1], [87.5, 21.6], [88.2, 21.8], [89.0, 22.0], [90.4, 22.7]]
  ]
  }
}
